{
    "links": {
        "self": "http://www.neowsapp.com/rest/v1/neo/3879276?api_key=iIulBulltgU6a56xZRHN4H3l9WmuAYTsLGpBGhQ2"
    },
    "id": "3879276",
    "neo_reference_id": "3879276",
    "name": "(2019 UM1)",
    "designation": "2019 UM1",
    "nasa_jpl_url": "http://ssd.jpl.nasa.gov/sbdb.cgi?sstr=3879276",
    "absolute_magnitude_h": 25.9,
    "estimated_diameter": {
        "kilometers": {
            "estimated_diameter_min": 0.0175612318,
            "estimated_diameter_max": 0.0392681082
        },
        "meters": {
            "estimated_diameter_min": 17.561231848,
            "estimated_diameter_max": 39.2681081809
        },
        "miles": {
            "estimated_diameter_min": 0.0109120402,
            "estimated_diameter_max": 0.0244000636
        },
        "feet": {
            "estimated_diameter_min": 57.6155918963,
            "estimated_diameter_max": 128.8323800441
        }
    },
    "is_potentially_hazardous_asteroid": false,
    "close_approach_data": [
        {
            "close_approach_date": "2019-10-14",
            "close_approach_date_full": "2019-Oct-14 08:29",
            "epoch_date_close_approach": 1571041740000,
            "relative_velocity": {
                "kilometers_per_second": "8.5712271622",
                "kilometers_per_hour": "30856.417784047",
                "miles_per_hour": "19172.9780392041"
            },
            "miss_distance": {
                "astronomical": "0.0397615336",
                "lunar": "15.4672365704",
                "kilometers": "5948240.734493432",
                "miles": "3696065.4035840816"
            },
            "orbiting_body": "Earth"
        }
    ],
    "orbital_data": {
        "orbit_id": "2",
        "orbit_determination_date": "2019-10-26 08:19:25",
        "first_observation_date": "2019-10-19",
        "last_observation_date": "2019-10-26",
        "data_arc_in_days": 7,
        "observations_used": 26,
        "orbit_uncertainty": "8",
        "minimum_orbit_intersection": ".0213833",
        "jupiter_tisserand_invariant": "3.606",
        "epoch_osculation": "2458776.5",
        "eccentricity": ".5070326512794202",
        "semi_major_axis": "2.056576657505901",
        "inclination": "6.976969746944955",
        "ascending_node_longitude": "17.40998294210443",
        "orbital_period": "1077.248207571844",
        "perihelion_distance": "1.013825142291316",
        "perihelion_argument": "345.7054563015517",
        "aphelion_distance": "3.099328172720487",
        "perihelion_time": "2458757.389607855959",
        "mean_anomaly": "6.386402988185926",
        "mean_motion": ".3341848215384389",
        "equinox": "J2000",
        "orbit_class": {
            "orbit_class_type": "APO",
            "orbit_class_description": "Near-Earth asteroid orbits which cross the Earth’s orbit similar to that of 1862 Apollo",
            "orbit_class_range": "a (semi-major axis) > 1.0 AU; q (perihelion) < 1.017 AU"
        }
    },
    "is_sentry_object": false
}